School ID,School Name,Street Address,City,State,ZIP,Low Grade*,High Grade*,Charter,Magnet*,Title I School*,Title 1 School Wide*,Students*,Teachers*,Student Teacher Ratio*,Free Lunch*,Reduced Lunch*,lat,lng
6002273,ACORN Woodland Elementary,1025 81st Ave.,Oakland,CA,94621,KG,05,No,No,Yes,Yes,300.00000,13.00000,23.1000000,256.00000,20.00000,37.7529046,-122.1864449
0130419,Alameda County Community,313 W. Winton Ave.,Hayward,CA,94544,KG,12,No,No,Yes,Yes,174.00000,13.00000,13.4000000,138.00000,11.00000,37.6585103,-122.0983459
0130401,Alameda County Juvenile Hall/Court,2500 Fairmont Ave.,San Leandro,CA,94578,KG,12,No,No,Yes,Yes,73.00000,10.00000,7.3000000,70.00000,0.00000,37.7160423,-122.1183586
6106751,Alameda County Special Education,313 W. Winton Ave.,Hayward,CA,94544,–,–,No,No,†,†,†,–,†,†,†,37.6585103,-122.0983459
0130229,Alameda High,2201 Encinal Ave.,Alameda,CA,94501,09,12,No,No,No,†,1776.00000,76.19000,23.3000000,371.00000,39.00000,37.76420969999999,-122.2470432
0106401,Alameda Science and Technology Institute,555 Ralph Appezzato MEM Pk,Alameda,CA,94501,09,12,No,Yes,Yes,No,187.00000,6.11000,30.6000000,52.00000,6.00000,37.7807527,-122.2793068
0130450,Albany High,603 Key Route Blvd.,Albany,CA,94706,09,12,No,No,Yes,No,1129.00000,56.47000,20.0000000,202.00000,30.00000,37.8963058,-122.2918823
6090161,Albany Middle,1259 Brighton Ave.,Albany,CA,94706,06,08,No,No,No,†,880.00000,45.96000,19.1000000,136.00000,30.00000,37.8980465,-122.2949041
6002315,Alisal Elementary,1454 Santa Rita Rd.,Pleasanton,CA,94566,KG,05,No,No,Yes,No,622.00000,26.00000,23.9000000,42.00000,10.00000,37.6718796,-121.8723776
6001630,Allendale Elementary,3670 Penniman Ave.,Oakland,CA,94619,KG,05,No,No,Yes,Yes,361.00000,17.00000,21.2000000,282.00000,15.00000,37.7887187,-122.2048452
0112771,Alliance Academy,1800 98th Ave.,Oakland,CA,94603,06,08,No,No,Yes,Yes,358.00000,23.20000,15.4000000,333.00000,11.00000,37.7461669,-122.165824
0118216,Alma Preschool,4400 Alma Ave.,Castro Valley,CA,94546,–,–,No,–,†,†,†,–,†,†,†,37.7081983,-122.0719821
6117543,Altamont Creek Elementary,6500 Garaventa Ranch Rd.,Livermore,CA,94551,KG,05,No,No,No,†,595.00000,24.60000,24.2000000,106.00000,10.00000,37.722706,-121.7188387
0110478,Alternative Learning Academy at Conley-Caraballo High,541 Blanche St.,Hayward,CA,94544,09,12,No,No,Yes,No,11.00000,1.00000,11.0000000,6.00000,1.00000,37.6150934,-122.0284784
6001572,Alvarado Elementary,31100 Fredi St.,Union City,CA,94587,KG,05,No,No,Yes,Yes,767.00000,32.00000,24.0000000,311.00000,84.00000,37.595985,-122.076828
0130583,Amador Valley High,1155 Santa Rita Rd.,Pleasanton,CA,94566,09,12,No,No,No,†,2673.00000,113.90000,23.5000000,145.00000,32.00000,37.6685767,-121.8739564
6100374,Amelia Earhart Elementary,400 Packet Landing Rd.,Alameda,CA,94502,KG,05,No,No,No,†,643.00000,24.00000,26.8000000,70.00000,12.00000,37.744661,-122.238152
0130062,American High,36300 Fremont Blvd.,Fremont,CA,94536,09,12,No,No,Yes,No,2273.00000,97.52000,23.3000000,371.00000,68.00000,37.5653614,-122.0164491
6085773,Andrew N. Christensen Middle,5757 Haggin Oaks Ave.,Livermore,CA,94551,06,08,No,No,No,†,717.00000,29.84000,24.0000000,125.00000,22.00000,37.7254804,-121.7287021
6090492,Anna Yates Elementary,4727 San Pablo Ave.,Emeryville,CA,94608,KG,08,No,No,Yes,Yes,511.00000,26.00000,19.7000000,344.00000,48.00000,37.8363111,-122.2818262
6056956,Anthony W. Ochoa Middle,2121 Depot Rd.,Hayward,CA,94545,07,08,No,No,Yes,Yes,571.00000,25.93000,22.0000000,340.00000,54.00000,37.640393,-122.1096965
6104723,Ardenwood Elementary,33955 Emilia Ln.,Fremont,CA,94555,KG,06,No,No,No,†,948.00000,36.00000,26.3000000,74.00000,9.00000,37.5725858,-122.0528931
0130849,Arroyo High,15701 Lorenzo Ave.,San Lorenzo,CA,94580,09,12,No,No,No,†,1830.00000,79.33000,23.1000000,731.00000,202.00000,37.6802527,-122.1394333
6071906,Arroyo Seco Elementary,5280 Irene Way,Livermore,CA,94550,KG,05,No,No,No,†,664.00000,27.00000,24.6000000,131.00000,21.00000,37.6843677,-121.728472
6001440,August Schilling Elementary,36901 Spruce St.,Newark,CA,94560,KG,06,No,No,Yes,Yes,413.00000,17.00000,24.3000000,276.00000,36.00000,37.5280204,-122.0473654
6057111,Bancroft Middle,13701 Bancroft Ave.,San Leandro,CA,94578,06,08,No,No,Yes,Yes,1048.00000,45.45000,23.1000000,610.00000,106.00000,37.7152512,-122.1404925
6002505,Bay Elementary,2001 Bockman Rd.,San Lorenzo,CA,94580,KG,05,No,No,Yes,No,490.00000,22.12000,22.2000000,219.00000,47.00000,37.6718832,-122.1473962
6110779,Bay Farm,200 Aughinbaugh Way,Alameda,CA,94502,KG,08,No,No,No,†,640.00000,27.70000,23.1000000,56.00000,15.00000,37.7441211,-122.2519223
6002281,Beach Elementary,100 Lake Ave.,Piedmont,CA,94611,KG,05,No,No,Yes,No,298.00000,14.00000,21.3000000,7.00000,0.00000,37.8232855,-122.2463483
6001655,Bella Vista Elementary,1025 E. 28th St.,Oakland,CA,94610,KG,05,No,No,Yes,Yes,447.00000,19.00000,23.5000000,328.00000,26.00000,37.8002026,-122.237426
6097729,Berkeley Arts Magnet at Whittier,1645 Milvia St.,Berkeley,CA,94709,KG,05,No,Yes,No,†,442.00000,20.98000,21.1000000,132.00000,16.00000,37.8769654,-122.2708536
0131177,Berkeley High,1980 Allston Way,Berkeley,CA,94704,09,12,No,No,No,†,3117.00000,153.40000,20.3000000,809.00000,75.00000,37.8679926,-122.2706171
0122804,Berkeley Special Education Preschool,2134 MLK Jr. Way,Berkeley,CA,94704,–,–,No,–,†,†,†,–,†,†,†,37.8692421,-122.2731945
0134924,Berkeley Technology Academy,2701 MLK Jr. Way,Berkeley,CA,94704,10,12,No,No,Yes,Yes,51.00000,7.54000,6.8000000,37.00000,0.00000,37.8596039,-122.2713889
6001531,Birch Grove Intermediate,37490 Birch St.,Newark,CA,94560,03,06,No,No,No,†,458.00000,13.40000,34.2000000,169.00000,36.00000,37.5346777,-122.0230327
6001499,Birch Grove Primary,6071 Smith Ave.,Newark,CA,94560,KG,06,No,No,No,†,408.00000,12.90000,31.6000000,122.00000,19.00000,37.5292423,-122.0154947
6002513,Bohannon Middle,800 Bockman Rd.,San Lorenzo,CA,94580,06,08,No,No,Yes,Yes,807.00000,34.99000,23.1000000,476.00000,66.00000,37.6704626,-122.125853
6000889,Bowman Elementary,PO Box 5000,Hayward,CA,94540,KG,06,No,No,Yes,Yes,350.00000,14.67000,23.9000000,231.00000,28.00000,37.6599999,-122.1
0133009,Brenkwitz High,22100 Princeton St.,Hayward,CA,94541,09,12,No,No,Yes,Yes,187.00000,14.33000,13.0000000,134.00000,13.00000,37.672093,-122.0980352
6056998,Bret Harte Middle,3700 Coolidge Ave.,Oakland,CA,94602,06,09,No,No,Yes,Yes,591.00000,38.96000,15.2000000,475.00000,34.00000,37.7993378,-122.2064993
6056931,Bret Harte Middle,PO Box 5000,Hayward,CA,94540,07,08,No,No,No,†,613.00000,25.50000,24.0000000,369.00000,55.00000,37.6599999,-122.1
0135426,Bridgepoint High (Continuation),5715 Musick Ave.,Newark,CA,94560,09,12,No,No,Yes,Yes,62.00000,4.50000,13.8000000,39.00000,1.00000,37.5428763,-122.031733
6002075,Bridges Academy,1325 53rd Ave.,Oakland,CA,94601,KG,05,No,No,Yes,Yes,442.00000,16.00000,27.6000000,408.00000,18.00000,37.7674712,-122.2070645
6000558,Brier Elementary,39201 Sundale Dr.,Fremont,CA,94538,KG,06,No,No,Yes,No,718.00000,28.00000,25.6000000,224.00000,53.00000,37.5407307,-121.9847228
6001663,Brookfield Elementary,401 Jones Ave.,Oakland,CA,94603,KG,05,No,No,Yes,Yes,296.00000,14.50000,20.4000000,263.00000,11.00000,37.7348579,-122.1892384
6089320,Brookvale Elementary,3400 Nicolet Ave.,Fremont,CA,94536,KG,06,No,No,No,†,717.00000,31.00000,23.1000000,94.00000,12.00000,37.5685781,-122.0151494
6000905,Burbank Elementary,353 B St.,Hayward,CA,94541,KG,06,No,No,Yes,Yes,914.00000,35.00000,26.1000000,530.00000,72.00000,37.6680482,-122.094318
0123026,Burbank Preschool Center,3550 64th Ave.,Oakland,CA,94605,–,–,No,–,†,†,†,–,†,†,†,37.7752832,-122.1772216
6001689,Burckhalter Elementary,3994 Burckhalter Ave.,Oakland,CA,94605,KG,05,No,No,Yes,Yes,248.00000,10.50000,23.6000000,201.00000,13.00000,37.7752905,-122.1665779
6000566,Cabrillo Elementary,36700 San Pedro Dr.,Fremont,CA,94536,KG,06,No,No,Yes,No,426.00000,20.00000,21.3000000,167.00000,50.00000,37.552039,-122.0241647
0131755,California School for the Blind,500 Walnut Ave.,Fremont,CA,94536,KG,12,No,Yes,–,–,40.00000,13.00000,3.1000000,37.00000,0.00000,37.5618224,-121.9654738
0131763,California School for the Deaf-Fremont,39350 Gallaudet Dr.,Fremont,CA,94538,KG,12,No,No,–,–,375.00000,73.91000,5.1000000,372.00000,0.00000,37.5610005,-121.9630056
6097653,Canyon Middle,PO Box 2146,Castro Valley,CA,94546,06,08,No,No,Yes,No,1388.00000,58.35000,23.8000000,285.00000,53.00000,37.7079558,-122.072069
6001697,Carl B. Munck Elementary,11900 Campus Dr.,Oakland,CA,94619,KG,05,No,No,Yes,Yes,236.00000,12.00000,19.7000000,160.00000,15.00000,37.7949441,-122.1740285
0125161,Castlemont High,8601 MacArthur Blvd.,Oakland,CA,94605,09,12,No,No,Yes,Yes,858.00000,52.29000,16.4000000,763.00000,26.00000,37.7591887,-122.1640862
6090351,Castro Valley Elementary,PO Box 2146,Castro Valley,CA,94546,KG,05,No,No,Yes,Yes,474.00000,18.50000,25.6000000,177.00000,43.00000,37.7079558,-122.072069
0132225,Castro Valley High,PO Box 2146,Castro Valley,CA,94546,09,12,No,No,No,†,2934.00000,121.83000,24.1000000,578.00000,120.00000,37.7079558,-122.072069
0133876,Castro Valley Virtual Academy,18400 Clifton Way,Castro Valley,CA,94546,KG,12,No,No,No,†,13.00000,0.60000,21.7000000,4.00000,0.00000,37.7133204,-122.0925559
6056873,Centerville Junior High,37720 Fremont Blvd.,Fremont,CA,94536,07,08,No,No,Yes,No,1006.00000,44.71000,22.5000000,230.00000,54.00000,37.556579,-122.000201
6097679,Cesar Chavez Middle,2801 Hop Ranch Rd.,Union City,CA,94587,06,08,No,No,Yes,Yes,1252.00000,54.50000,23.0000000,645.00000,133.00000,37.59129410000001,-122.0483208
6056949,Cesar Chavez Middle,27845 Whitman Rd.,Hayward,CA,94544,07,08,No,No,Yes,Yes,548.00000,24.56000,22.3000000,377.00000,50.00000,37.6363149,-122.0626534
6001648,Chabot Elementary,6686 Chabot Rd.,Oakland,CA,94618,KG,05,No,No,No,†,567.00000,21.50000,26.4000000,83.00000,8.00000,37.8505437,-122.2409115
6090369,Chabot Elementary,PO Box 2146,Castro Valley,CA,94546,KG,05,No,No,No,†,468.00000,16.50000,28.4000000,71.00000,24.00000,37.7079558,-122.072069
6000913,Cherryland Elementary,585 Willow Ave.,Hayward,CA,94541,KG,06,No,No,Yes,Yes,759.00000,30.00000,25.3000000,496.00000,47.00000,37.6756715,-122.0984615
0130534,Circle of Independent Learning,4700 Calaveras Ave.,Fremont,CA,94538,KG,12,Yes,No,Yes,No,347.00000,15.96000,21.7000000,115.00000,28.00000,37.5382547,-121.9909421
6057004,Claremont Middle,5750 College Ave.,Oakland,CA,94618,06,08,No,No,Yes,Yes,474.00000,22.00000,21.5000000,186.00000,25.00000,37.8459164,-122.2510316
6001739,Cleveland Elementary,745 Cleveland St.,Oakland,CA,94606,KG,05,No,No,Yes,Yes,411.00000,15.50000,26.5000000,170.00000,30.00000,37.8040293,-122.2439861
0112797,Coliseum College Prep Academy,1390 66th Ave.,Oakland,CA,94621,06,12,No,No,Yes,Yes,475.00000,29.30000,16.2000000,414.00000,35.00000,37.7615544,-122.1936724
6002521,Colonial Acres Elementary,17115 Meekland Ave.,Hayward,CA,94541,KG,05,No,No,Yes,Yes,590.00000,26.00000,22.7000000,447.00000,38.00000,37.683503,-122.1170228
0106542,Community Day High,4917 Mountain Blvd.,Oakland,CA,94619,09,12,No,No,Yes,Yes,22.00000,3.00000,7.3000000,19.00000,1.00000,37.7870386,-122.177815
0106559,Community Day Middle,4917 Mountain Blvd.,Oakland,CA,94619,06,08,No,No,No,†,11.00000,–,†,8.00000,0.00000,37.7870386,-122.177815
0115204,Community United Elementary,6701 International Blvd.,Oakland,CA,94621,KG,05,No,No,Yes,Yes,367.00000,18.00000,20.4000000,332.00000,15.00000,37.76095249999999,-122.1918545
0110460,Core Learning Academy at Conley-Caraballo High,541 Blanche St.,Hayward,CA,94544,09,12,No,No,Yes,Yes,154.00000,8.60000,17.9000000,69.00000,10.00000,37.6150934,-122.0284784
6090146,Cornell Elementary,920 Talbot Ave.,Albany,CA,94706,KG,05,No,No,No,†,553.00000,24.00000,23.0000000,68.00000,12.00000,37.889766,-122.2953818
6002539,Corvallis Elementary,14790 Corvallis St.,San Leandro,CA,94579,KG,05,No,No,Yes,No,489.00000,22.00000,22.2000000,252.00000,59.00000,37.697426,-122.15142
6090195,Cragmont Elementary,830 Regal Rd.,Berkeley,CA,94708,KG,05,No,No,Yes,Yes,399.00000,20.36000,19.6000000,128.00000,12.00000,37.8941183,-122.2675599
6090385,Creekside Middle,PO Box 2146,Castro Valley,CA,94546,06,08,No,No,No,†,784.00000,33.30000,23.5000000,154.00000,40.00000,37.7079558,-122.072069
6001754,Crocker Highlands Elementary,525 Midcrest Rd.,Oakland,CA,94610,KG,05,No,No,No,†,473.00000,20.00000,23.7000000,36.00000,2.00000,37.8110651,-122.2272317
0130484,Crossroads High (Alternative),35753 Cedar Blvd.,Newark,CA,94560,KG,12,No,No,Yes,No,55.00000,2.00000,27.5000000,30.00000,1.00000,37.5497787,-122.0373288
6002547,Dayton Elementary,1500 Dayton Ave.,San Leandro,CA,94579,KG,05,No,No,Yes,No,472.00000,19.00000,24.8000000,252.00000,43.00000,37.6879246,-122.1571916
0126763,Decoto School for Independent Study,725 Whipple Rd.,Union City,CA,94587,KG,12,No,No,Yes,No,118.00000,5.70000,20.7000000,56.00000,3.00000,37.6069932,-122.0271057
6002554,Del Rey Elementary,1510 Via Sonya,San Lorenzo,CA,94580,KG,05,No,No,Yes,Yes,526.00000,23.00000,22.9000000,292.00000,34.00000,37.6683856,-122.1378087
0132670,Del Valle Continuation High,2253 Fifth St.,Livermore,CA,94550,07,12,No,No,Yes,No,115.00000,12.00000,9.6000000,61.00000,5.00000,37.6786701,-121.7666941
6118525,Delaine Eastin Elementary,34901 E.in Dr.,Union City,CA,94587,KG,05,No,No,No,†,775.00000,31.00000,25.0000000,149.00000,48.00000,37.5675191,-122.07419
0132688,Dewey Academy,1111 2nd Ave.,Oakland,CA,94606,09,12,No,No,Yes,Yes,240.00000,11.60000,20.7000000,204.00000,10.00000,37.7968463,-122.2581661
6090005,Donald D. Lum Elementary,420 Grand St.,Alameda,CA,94501,05,05,No,No,Yes,No,87.00000,3.00000,29.0000000,28.00000,2.00000,37.7613266,-122.2624519
6001366,Donlon Elementary,4150 Dorman Rd.,Pleasanton,CA,94588,KG,05,No,No,No,†,814.00000,32.00000,25.4000000,50.00000,5.00000,37.6839722,-121.9083259
6001374,Dublin Elementary,7997 Vomac Rd.,Dublin,CA,94568,KG,05,No,No,Yes,No,894.00000,33.60000,26.6000000,92.00000,19.00000,37.714409,-121.936042
0132704,Dublin High,8151 Village Pkwy.,Dublin,CA,94568,09,12,No,No,Yes,No,2750.00000,113.60000,24.2000000,302.00000,33.00000,37.7203071,-121.9241556
6001457,E. L. Musick Elementary,5735 Musick Ave.,Newark,CA,94560,KG,06,No,No,Yes,Yes,295.00000,9.00000,32.8000000,169.00000,22.00000,37.543748,-122.0306852
6000590,E. M. Grimmer Elementary,43030 Newport Dr.,Fremont,CA,94538,KG,06,No,No,Yes,No,495.00000,24.00000,20.6000000,208.00000,36.00000,37.5202833,-121.9512822
6000921,East Avenue Elementary,2424 E. Ave.,Hayward,CA,94541,KG,06,No,No,No,†,581.00000,24.00000,24.2000000,295.00000,57.00000,37.6715797,-122.0550566
6001242,East Avenue Middle,3951 E. Ave.,Livermore,CA,94550,06,08,No,No,Yes,No,648.00000,26.02000,24.9000000,163.00000,28.00000,37.6790547,-121.7508567
0111799,East Bay Arts High,20450 Royal Ave.,Hayward,CA,94541,09,12,No,No,No,†,220.00000,13.93000,15.8000000,137.00000,8.00000,37.6696219,-122.114452
0115600,East Oakland Pride Elementary,8000 Birch St.,Oakland,CA,94621,KG,05,No,No,Yes,Yes,351.00000,14.00000,25.1000000,326.00000,10.00000,37.7592062,-122.176778
0195024,Eden Area ROP,26316 Hesperian Blvd.,Hayward,CA,94545,10,12,No,–,†,†,0.00000,–,†,–,–,37.6378592,-122.1003873
6090583,Eden Gardens Elementary,PO Box 5000,Hayward,CA,94540,KG,06,No,No,No,†,587.00000,24.00000,24.5000000,286.00000,45.00000,37.6599999,-122.1
6002562,Edendale Middle,16160 Ashland Ave.,San Lorenzo,CA,94580,06,08,No,No,Yes,Yes,699.00000,30.90000,22.6000000,529.00000,51.00000,37.6957666,-122.1178705
6090013,Edison Elementary,2700 Buena Vista Ave.,Alameda,CA,94501,KG,05,No,No,No,†,470.00000,19.00000,24.7000000,55.00000,12.00000,37.7646679,-122.2346781
6057061,Edna Brewer Middle,3748 13th Ave.,Oakland,CA,94610,06,08,No,No,Yes,Yes,805.00000,39.10000,20.6000000,452.00000,54.00000,37.8037092,-122.2293593
6000947,Eldridge Elementary,26825 Eldridge Ave.,Hayward,CA,94544,KG,06,No,No,Yes,Yes,423.00000,16.00000,26.4000000,257.00000,44.00000,37.6362182,-122.0858305
0125930,Eleanor Murray Fallon,3601 Kohnen Way,Dublin,CA,94568,06,08,No,No,No,†,1506.00000,61.70000,24.4000000,67.00000,8.00000,37.7158491,-121.8662051
0112789,Elmhurst Community Prep,1800 98th Ave.,Oakland,CA,94603,06,08,No,No,Yes,Yes,371.00000,23.70000,15.7000000,336.00000,16.00000,37.7461669,-122.165824
6001812,Emerson Elementary,4803 Lawton Ave.,Oakland,CA,94609,KG,05,No,No,Yes,Yes,314.00000,12.50000,25.1000000,210.00000,22.00000,37.8344201,-122.2579445
6090211,Emerson Elementary,2800 Forest Ave.,Berkeley,CA,94705,KG,05,No,No,Yes,Yes,320.00000,16.50000,19.4000000,106.00000,13.00000,37.861346,-122.2502661
0132746,Emery Secondary,1100 47th St.,Emeryville,CA,94608,09,12,No,No,Yes,Yes,179.00000,14.69000,12.2000000,117.00000,15.00000,37.835677,-122.2828249
0119933,Emeryville Preschool Students,1275 - 61st St.,Emeryville,CA,94608,–,–,No,–,†,†,†,–,†,†,†,37.84286669999999,-122.2874081
6001259,Emma C. Smith Elementary,391 Ontario Dr.,Livermore,CA,94550,KG,05,No,No,No,†,738.00000,28.90000,25.5000000,54.00000,6.00000,37.6663123,-121.7968116
0132142,Encinal Junior/Senior High,210 Central Ave.,Alameda,CA,94501,06,12,No,No,Yes,No,1329.00000,64.26000,20.7000000,534.00000,53.00000,37.7716468,-122.2898264
0102988,EnCompass Academy Elementary,1025 81st Ave.,Oakland,CA,94621,KG,05,No,No,Yes,Yes,326.00000,11.30000,28.8000000,294.00000,13.00000,37.7529046,-122.1864449
6002190,Esperanza Elementary,10315 E St.,Oakland,CA,94603,KG,05,No,No,Yes,Yes,352.00000,13.00000,27.1000000,306.00000,28.00000,37.7372117,-122.1741615
6002323,Fairlands Elementary,4151 W. Las Positas Blvd.,Pleasanton,CA,94588,KG,05,No,No,No,†,785.00000,29.40000,26.7000000,38.00000,6.00000,37.6924617,-121.8740946
6000962,Fairview Elementary,PO Box 5000,Hayward,CA,94540,KG,06,No,No,Yes,Yes,567.00000,22.50000,25.2000000,352.00000,52.00000,37.6599999,-122.1
6113815,Faith Ringgold School of Arts and Science,1570 Ward St.,Hayward,CA,94541,KG,08,No,No,Yes,Yes,140.00000,6.15000,22.8000000,88.00000,13.00000,37.6770515,-122.0726923
0130096,Foothill High,4375 Foothill Rd.,Pleasanton,CA,94588,09,12,No,No,Yes,No,2176.00000,91.55000,23.8000000,151.00000,42.00000,37.6717472,-121.919361
6111330,Forest Park Elementary,34400 Maybird Cir.,Fremont,CA,94555,KG,06,No,No,No,†,1013.00000,38.00000,26.7000000,40.00000,8.00000,37.5620885,-122.0520971
6090021,Frank Otis Elementary,3010 Fillmore St.,Alameda,CA,94501,KG,05,No,No,No,†,644.00000,26.00000,24.8000000,100.00000,11.00000,37.7542251,-122.2385384
6090039,Franklin Elementary,1433 San Antonio Ave.,Alameda,CA,94501,KG,05,No,No,No,†,345.00000,13.00000,26.5000000,68.00000,5.00000,37.7690918,-122.2608913
6001820,Franklin Elementary,915 Foothill Blvd.,Oakland,CA,94606,KG,05,No,No,Yes,Yes,702.00000,27.50000,25.5000000,606.00000,31.00000,37.7935767,-122.2489931
6106983,Fred E. Weibel Elementary,45135 S. Grimmer Blvd.,Fremont,CA,94539,KG,06,No,No,No,†,833.00000,33.00000,25.2000000,53.00000,3.00000,37.50615,-121.926185
0112813,Fred T. Korematsu Discovery Academy,10315 E St.,Oakland,CA,94603,KG,05,No,No,Yes,Yes,339.00000,14.00000,24.2000000,301.00000,12.00000,37.7372117,-122.1741615
6001390,Frederiksen Elementary,7243 Tamarack Dr.,Dublin,CA,94568,KG,05,No,No,Yes,No,813.00000,30.80000,26.4000000,132.00000,29.00000,37.7152067,-121.9228665
0125716,Fremont High,4610 Foothill Blvd.,Oakland,CA,94601,09,12,No,No,Yes,Yes,827.00000,45.31000,18.3000000,760.00000,21.00000,37.7741975,-122.209378
6057020,Frick Middle,2845 64th Ave.,Oakland,CA,94605,06,08,No,No,Yes,Yes,227.00000,15.35000,14.8000000,206.00000,6.00000,37.7716769,-122.1843165
6001838,Fruitvale Elementary,3200 Boston Ave.,Oakland,CA,94602,KG,05,No,No,Yes,Yes,367.00000,17.00000,21.6000000,304.00000,13.00000,37.7962778,-122.2137663
0115576,Futures Elementary,6701 International Blvd.,Oakland,CA,94621,KG,05,No,No,Yes,Yes,294.00000,13.00000,22.6000000,285.00000,6.00000,37.76095249999999,-122.1918545
6056881,G. M. Walters Junior High,39600 Logan Dr.,Fremont,CA,94538,07,08,No,No,Yes,Yes,742.00000,37.00000,20.1000000,247.00000,62.00000,37.5367893,-121.9837322
6001846,Garfield Elementary,1640 22nd Ave.,Oakland,CA,94606,KG,05,No,No,Yes,Yes,654.00000,25.00000,26.2000000,567.00000,39.00000,37.786459,-122.2356974
6002372,Garfield Elementary,13701 Bancroft Ave.,San Leandro,CA,94578,KG,05,No,No,Yes,Yes,412.00000,16.60000,24.8000000,221.00000,43.00000,37.7152512,-122.1404925
0119859,Gateway to College at Laney College,900 Fallon St.,Oakland,CA,94607,09,12,No,No,Yes,Yes,90.00000,–,†,42.00000,1.00000,37.79647690000001,-122.2628416
0128298,Glankler Early Learning Center,39207 Sundale Dr.,Fremont,CA,94538,KG,KG,No,No,†,†,0.00000,–,†,–,–,37.5397135,-121.9856113
6000988,Glassbrook Elementary,975 Schafer Rd.,Hayward,CA,94544,KG,06,No,No,Yes,Yes,537.00000,22.00000,24.4000000,363.00000,23.00000,37.6411776,-122.0800104
6000624,Glenmoor Elementary,4620 Mattos Dr.,Fremont,CA,94536,KG,06,No,No,Yes,No,651.00000,26.00000,25.0000000,175.00000,32.00000,37.5452351,-122.0048624
6001853,Glenview Elementary,4215 La Cresta Ave.,Oakland,CA,94602,KG,05,No,No,Yes,No,455.00000,19.16000,23.7000000,151.00000,12.00000,37.8056021,-122.2192529
0115584,Global Family,2035 40th Ave.,Oakland,CA,94601,KG,05,No,No,Yes,Yes,442.00000,17.00000,26.0000000,403.00000,25.00000,37.7794661,-122.2131484
0133397,Granada High,400 Wall St.,Livermore,CA,94550,09,12,No,No,No,†,2261.00000,94.30000,24.0000000,404.00000,31.00000,37.674993,-121.7878354
6002604,Grant Elementary,879 Grant Ave.,San Lorenzo,CA,94580,KG,05,No,No,Yes,Yes,403.00000,16.00000,25.2000000,196.00000,54.00000,37.6813283,-122.1358641
6001879,Grass Valley Elementary,4720 Dunkirk Ave.,Oakland,CA,94605,KG,05,No,No,Yes,Yes,260.00000,11.00000,23.6000000,184.00000,9.00000,37.7528211,-122.1245702
0115618,Greenleaf Elementary,6328 E. 17th St.,Oakland,CA,94621,KG,08,No,No,Yes,Yes,638.00000,27.36000,23.3000000,566.00000,38.00000,37.7646844,-122.1947809
6115554,Guy Jr. Emanuele Elementary,600 G St.,Union City,CA,94587,KG,05,No,No,Yes,Yes,586.00000,23.50000,24.9000000,298.00000,60.00000,37.59991430000001,-122.0199458
6001473,H. A. Snow Elementary,6580 Mirabeau Dr.,Newark,CA,94560,KG,06,No,No,Yes,Yes,360.00000,13.00000,27.7000000,161.00000,31.00000,37.5428734,-122.0490306
6000996,Harder Elementary,495 Wyeth Rd.,Hayward,CA,94544,KG,06,No,No,Yes,Yes,608.00000,24.00000,25.3000000,372.00000,38.00000,37.6512259,-122.0721591
0123935,Harold William Kolb,3150 Palermo Way,Dublin,CA,94568,KG,05,No,No,No,†,948.00000,37.00000,25.6000000,69.00000,7.00000,37.7120494,-121.8588406
6066500,Harvest Park Middle,4900 Valley Ave.,Pleasanton,CA,94566,06,08,No,No,No,†,1189.00000,49.77000,23.9000000,69.00000,11.00000,37.6752892,-121.8832965
0122986,Harvest Park Preschool Center,4900 Valley Ave.,Pleasanton,CA,94566,–,–,No,–,†,†,†,–,†,†,†,37.6752892,-121.8832965
6000640,Harvey Green Elementary,42875 Gatewood St.,Fremont,CA,94538,KG,06,No,No,Yes,No,510.00000,20.00000,25.5000000,125.00000,16.00000,37.5192764,-121.9588807
6002299,Havens Elementary,323 Highland Ave.,Piedmont,CA,94611,KG,05,No,No,Yes,No,476.00000,21.20000,22.5000000,6.00000,0.00000,37.8254759,-122.2328608
0133629,Hayward High,PO Box 5000,Hayward,CA,94540,09,12,No,No,Yes,Yes,1607.00000,71.68000,22.4000000,980.00000,161.00000,37.6599999,-122.1
6090047,Henry Haight Elementary,2025 Santa Clara Ave.,Alameda,CA,94501,KG,05,No,No,Yes,Yes,554.00000,22.00000,25.2000000,258.00000,18.00000,37.769758,-122.2507214
6114318,Henry P. Mohr Elementary,3300 Dennis Dr.,Pleasanton,CA,94588,KG,05,No,No,No,†,629.00000,25.50000,24.7000000,28.00000,1.00000,37.6922473,-121.8601304
6002612,Hesperian Elementary,620 Drew St.,San Lorenzo,CA,94580,KG,05,No,No,Yes,Yes,589.00000,26.00000,22.7000000,410.00000,55.00000,37.69346,-122.125025
0131334,Highland,2021 Highland Blvd.,Hayward,CA,94540,KG,12,No,No,Yes,Yes,25.00000,3.00000,8.3000000,19.00000,2.00000,37.6620657,-122.0579655
6001911,Hillcrest Elementary,30 Marguerite Dr.,Oakland,CA,94618,KG,08,No,No,No,†,387.00000,15.80000,24.5000000,28.00000,0.00000,37.8407556,-122.2324619
6002620,Hillside Elementary,15980 Marcella St.,San Leandro,CA,94578,KG,05,No,No,Yes,Yes,452.00000,19.00000,23.8000000,351.00000,36.00000,37.7019423,-122.1167169
6001606,Hillview Crest Elementary,31410 Wheelon Ave.,Hayward,CA,94544,KG,05,No,No,Yes,Yes,540.00000,23.20000,23.3000000,311.00000,76.00000,37.614294,-122.0350197
0121376,Home and Hospital Program,1011 Union St.,Oakland,CA,94607,KG,12,No,No,No,†,7.00000,0.20000,35.0000000,–,–,37.8074136,-122.2896231
6057046,Hoover Elementary,890 Brockhurst St.,Oakland,CA,94608,KG,05,No,No,Yes,Yes,278.00000,10.50000,26.5000000,258.00000,7.00000,37.823267,-122.2751141
6001929,Horace Mann Elementary,5222 Ygnacio Ave.,Oakland,CA,94601,KG,05,No,No,Yes,Yes,345.00000,14.00000,24.6000000,318.00000,7.00000,37.7738432,-122.2024068
6001713,Howard Elementary,8755 Fontaine St.,Oakland,CA,94605,KG,05,No,No,Yes,Yes,214.00000,11.00000,19.5000000,181.00000,9.00000,37.762239,-122.1522393
6090393,Independent Elementary,PO Box 2146,Castro Valley,CA,94546,KG,05,No,No,No,†,660.00000,25.00000,26.4000000,95.00000,16.00000,37.7079558,-122.072069
6114011,Independent Study Sojourner Truth,8251 Fontaine St.,Oakland,CA,94605,KG,12,No,No,Yes,Yes,147.00000,11.00000,13.4000000,107.00000,4.00000,37.7655596,-122.1535826
0121210,Infant and Preschool Program,3550 64th Ave.,Oakland,CA,94605,–,–,No,–,†,†,†,–,†,†,†,37.7752832,-122.1772216
6118616,International Community,2825 International Blvd.,Oakland,CA,94601,KG,05,No,No,Yes,Yes,306.00000,12.00000,25.5000000,268.00000,9.00000,37.7793766,-122.230619
0134270,Irvington High,41800 Blacow Rd.,Fremont,CA,94538,09,12,No,Yes,No,†,2360.00000,100.02000,23.6000000,305.00000,53.00000,37.5249089,-121.966864
0134304,Island High (Continuation),500 Pacific Ave.,Alameda,CA,94501,09,12,No,No,Yes,No,111.00000,9.46000,11.7000000,54.00000,4.00000,37.7760028,-122.2817376
6068266,Itliong-Vera Cruz,31604 Alvarado Blvd.,Union City,CA,94587,06,08,No,No,Yes,No,1378.00000,55.30000,24.9000000,429.00000,128.00000,37.5938689,-122.0756132
6000665,J. Haley Durham Elementary,40292 Leslie St.,Fremont,CA,94538,KG,06,No,No,Yes,No,662.00000,26.00000,25.5000000,140.00000,44.00000,37.542378,-121.966316
0131615,J. M. Amador Elementary,2100 E. Cantara Dr.,Dublin,CA,94568,KG,05,No,No,No,†,968.00000,39.00000,24.8000000,17.00000,0.00000,37.7187694,-121.8427402
6001283,Jackson Avenue Elementary,554 Jackson Ave.,Livermore,CA,94550,KG,05,No,No,Yes,Yes,552.00000,23.30000,23.7000000,209.00000,17.00000,37.6850539,-121.7414719
6001481,James A. Graham Elementary,36270 Cherry St.,Newark,CA,94560,KG,06,No,No,Yes,Yes,412.00000,15.00000,27.5000000,245.00000,31.00000,37.53877689999999,-122.0421486
6118038,James Dougherty Elementary,5301 Hibernia Dr.,Dublin,CA,94568,KG,05,No,No,No,†,957.00000,38.80000,24.7000000,33.00000,1.00000,37.7098673,-121.8846167
6000673,James Leitch Elementary,47100 Fernald St.,Fremont,CA,94539,KG,03,No,No,No,†,902.00000,41.00000,22.0000000,36.00000,2.00000,37.4876388,-121.9224185
0134668,James Logan High,1800 H St.,Union City,CA,94587,09,12,No,No,Yes,Yes,3735.00000,153.38000,24.4000000,1360.00000,374.00000,37.5911664,-122.025097
6090252,Jefferson Elementary,1400 Ada St.,Berkeley,CA,94702,KG,05,No,No,No,†,408.00000,19.70000,20.7000000,111.00000,19.00000,37.87916999999999,-122.2843071
6002398,Jefferson Elementary,13701 Bancroft Ave.,San Leandro,CA,94578,KG,05,No,No,Yes,Yes,609.00000,25.00000,24.4000000,397.00000,80.00000,37.7152512,-122.1404925
6113005,Jensen Ranch Elementary,PO Box 2146,Castro Valley,CA,94546,KG,05,No,No,No,†,420.00000,15.00000,28.0000000,30.00000,8.00000,37.7079558,-122.072069
6001945,Joaquin Miller Elementary,5525 Ascot Dr.,Oakland,CA,94611,KG,05,No,No,No,†,435.00000,19.00000,22.9000000,124.00000,14.00000,37.8188596,-122.2017566
6001291,Joe Michell,1001 Elaine Ave.,Livermore,CA,94550,KG,08,No,No,No,†,799.00000,35.17000,22.7000000,149.00000,36.00000,37.6691383,-121.7835361
6000541,John Blacow Elementary,40404 Sundale Dr.,Fremont,CA,94538,KG,06,No,No,Yes,No,461.00000,23.00000,20.0000000,153.00000,44.00000,37.528082,-121.9765338
6001507,John F. Kennedy Elementary,35430 Blackburn Dr.,Newark,CA,94560,KG,06,No,No,No,†,390.00000,11.50000,33.9000000,100.00000,13.00000,37.5524743,-122.042415
0134452,John F. Kennedy High,39999 Blacow Rd.,Fremont,CA,94538,09,12,No,No,Yes,Yes,1379.00000,65.67000,21.0000000,408.00000,119.00000,37.5288177,-121.9859667
6000723,John G. Mattos Elementary,37944 Farwell Dr.,Fremont,CA,94536,KG,06,No,Yes,No,†,636.00000,28.00000,22.7000000,76.00000,12.00000,37.5395027,-122.0119295
6066468,John Gomes Elementary,555 Lemos Ln.,Fremont,CA,94539,KG,06,No,No,No,†,778.00000,34.00000,22.9000000,41.00000,9.00000,37.5511801,-121.9489229
0114579,John Green Elementary,3300 Antone Way,Dublin,CA,94568,KG,05,No,No,No,†,851.00000,33.10000,25.7000000,28.00000,4.00000,37.7184085,-121.8624431
6056907,John M. Horner Junior High,41365 Chapel Way,Fremont,CA,94538,07,08,No,No,No,†,1212.00000,50.00000,24.2000000,156.00000,23.00000,37.53041839999999,-121.9649444
6105316,John Muir Elementary,2955 Claremont Ave.,Berkeley,CA,94705,KG,05,No,No,Yes,Yes,296.00000,13.76000,21.5000000,100.00000,16.00000,37.857419,-122.2447027
6066518,John Muir Middle,13701 Bancroft Ave.,San Leandro,CA,94578,06,08,No,No,Yes,Yes,995.00000,43.65000,22.8000000,520.00000,128.00000,37.7152512,-122.1404925
6000681,Joseph Azevada Elementary,39450 Royal Palm Dr.,Fremont,CA,94538,KG,06,No,No,Yes,No,633.00000,28.00000,22.6000000,104.00000,31.00000,37.5312855,-121.9938543
6090526,Joshua Chadbourne Elementary,801 Plymouth Ave.,Fremont,CA,94539,KG,06,No,No,No,†,747.00000,30.00000,24.9000000,39.00000,1.00000,37.542661,-121.9400193
6001234,Junction K-8,298 Junction Ave.,Livermore,CA,94551,KG,08,No,No,Yes,Yes,888.00000,43.00000,20.7000000,546.00000,27.00000,37.68758200000001,-121.766303
6001895,Kaiser Elementary,25 S. Hill Ct.,Oakland,CA,94618,KG,05,No,No,No,†,274.00000,11.00000,24.9000000,67.00000,1.00000,37.8527693,-122.2315311
6096523,La Escuelita Elementary,1100 Third Ave.,Oakland,CA,94606,KG,08,No,No,Yes,Yes,417.00000,17.33000,24.1000000,348.00000,30.00000,37.7955602,-122.2570204
6001994,Laurel Elementary,3750 Brown Ave.,Oakland,CA,94619,KG,05,No,No,Yes,Yes,510.00000,20.00000,25.5000000,368.00000,43.00000,37.7927482,-122.1966431
0135376,Lawrence Elementary,2451 Portola Ave.,Livermore,CA,94551,KG,05,No,No,No,†,321.00000,14.00000,22.9000000,37.00000,0.00000,37.6900763,-121.7706111
6110332,Leo R. Croce Elementary,5650 Scenic Ave.,Livermore,CA,94551,KG,05,No,No,No,†,610.00000,25.00000,24.4000000,130.00000,17.00000,37.7180354,-121.7283105
0130575,LIFE Academy,2101 35th Ave.,Oakland,CA,94601,06,12,No,No,Yes,Yes,464.00000,26.00000,17.8000000,391.00000,36.00000,37.7847011,-122.2165488
6002018,Lincoln Elementary,225 11th St.,Oakland,CA,94607,KG,05,No,No,Yes,Yes,744.00000,28.50000,26.1000000,521.00000,50.00000,37.7997251,-122.2670282
6001523,Lincoln Elementary,36111 BettenCt. St.,Newark,CA,94560,KG,06,No,No,Yes,Yes,388.00000,14.50000,26.8000000,177.00000,30.00000,37.5360423,-122.0527378
0134528,Lincoln High (Continuation),13701 Bancroft Ave.,San Leandro,CA,94578,09,12,No,No,Yes,No,155.00000,9.00000,17.2000000,95.00000,11.00000,37.7152512,-122.1404925
6090054,Lincoln Middle,1250 Fernside Blvd.,Alameda,CA,94501,06,08,No,No,No,†,873.00000,40.73000,21.4000000,130.00000,20.00000,37.752839,-122.2314513
0134536,Livermore High,600 Maple St.,Livermore,CA,94550,09,12,No,No,No,†,1936.00000,84.49000,22.9000000,407.00000,43.00000,37.6808158,-121.7615306
6090294,Longfellow Arts and Technology Middle,1500 Derby St.,Berkeley,CA,94703,06,08,No,Yes,Yes,Yes,498.00000,28.36000,17.6000000,246.00000,35.00000,37.8585149,-122.2782376
6001044,Longwood Elementary,850 Longwood Ave.,Hayward,CA,94541,KG,06,No,No,Yes,Yes,663.00000,27.00000,24.6000000,427.00000,36.00000,37.65863,-122.109971
6002653,Lorenzo Manor Elementary,18250 Bengal St.,Hayward,CA,94541,KG,05,No,No,Yes,Yes,587.00000,25.11000,23.4000000,379.00000,61.00000,37.6745505,-122.1182492
6001051,Lorin A. Eden Elementary,PO Box 5000,Hayward,CA,94540,KG,06,No,No,No,†,421.00000,16.00000,26.3000000,203.00000,33.00000,37.6599999,-122.1
6001416,Lydiksen Elementary,7700 Highland Oaks Dr.,Pleasanton,CA,94588,KG,05,No,No,No,†,628.00000,27.00000,23.3000000,33.00000,7.00000,37.6805671,-121.9210516
0130294,MacGregor High (Continuation),603 Key Route Blvd,Albany,CA,94706,10,12,No,No,Yes,No,12.00000,0.41000,29.3000000,3.00000,3.00000,37.8963058,-122.2918823
6002414,Madison Elementary,13701 Bancroft Ave.,San Leandro,CA,94578,KG,05,No,No,No,†,488.00000,19.00000,25.7000000,196.00000,45.00000,37.7152512,-122.1404925
6066450,Madison Park Academy 6-12,400 Capistrano Dr.,Oakland,CA,94603,06,12,No,No,Yes,Yes,772.00000,43.68000,17.7000000,683.00000,41.00000,37.7266434,-122.179217
6002182,Madison Park Academy TK-5,470 El Paseo Dr.,Oakland,CA,94603,KG,05,No,No,Yes,Yes,304.00000,11.00000,27.6000000,269.00000,15.00000,37.7280886,-122.177044
6090286,Malcolm X Elementary,1731 Prince St.,Berkeley,CA,94703,KG,05,No,No,No,†,551.00000,27.61000,20.0000000,126.00000,12.00000,37.8525375,-122.2735647
6002042,Manzanita Community,2409 E. 27th St.,Oakland,CA,94601,KG,05,No,No,Yes,Yes,438.00000,18.50000,23.7000000,381.00000,20.00000,37.7919493,-122.2247938
0110247,Manzanita SEED Elementary,2409 E. 27th St.,Oakland,CA,94601,KG,05,No,No,Yes,Yes,400.00000,17.00000,23.5000000,245.00000,18.00000,37.7919493,-122.2247938
6095376,Marin Elementary,1001 Santa Fe Ave.,Albany,CA,94706,KG,05,No,No,No,†,508.00000,20.00000,25.4000000,64.00000,9.00000,37.8878792,-122.2879397
6002059,Markham Elementary,7220 Krause Ave.,Oakland,CA,94605,KG,05,No,No,Yes,Yes,340.00000,12.00000,28.3000000,318.00000,11.00000,37.7654739,-122.1787292
6090401,Marshall Elementary,PO Box 2146,Castro Valley,CA,94546,KG,05,No,No,Yes,Yes,502.00000,20.00000,25.1000000,158.00000,29.00000,37.7079558,-122.072069
6072235,Martin Luther King Jr. Elementary,960 Tenth St.,Oakland,CA,94607,KG,04,No,No,Yes,Yes,269.00000,11.00000,24.5000000,257.00000,6.00000,37.8060231,-122.2833824
6066476,Martin Luther King Jr. Middle,PO Box 5000,Hayward,CA,94540,07,08,No,No,Yes,Yes,732.00000,30.78000,23.8000000,448.00000,63.00000,37.6599999,-122.1
6056857,Martin Luther King Middle,1781 Rose St.,Berkeley,CA,94703,06,08,No,No,Yes,Yes,1024.00000,47.00000,21.8000000,250.00000,29.00000,37.8814906,-122.2777294
6001317,Marylin Avenue Elementary,800 Marylin Ave.,Livermore,CA,94551,KG,05,No,No,Yes,Yes,416.00000,20.90000,19.9000000,307.00000,15.00000,37.6845737,-121.7860807
0126656,Maya Lin,825 Taylor St.,Alameda,CA,94501,KG,05,No,Yes,No,†,415.00000,17.00000,24.4000000,89.00000,7.00000,37.7726626,-122.2714589
0110189,McClymonds High,2607 Myrtle St.,Oakland,CA,94607,09,12,No,No,Yes,Yes,401.00000,22.40000,17.9000000,339.00000,15.00000,37.8186468,-122.278592
6002422,McKinley Elementary,13701 Bancroft Ave.,San Leandro,CA,94578,KG,05,No,No,Yes,Yes,484.00000,19.00000,25.5000000,299.00000,53.00000,37.7152512,-122.1404925
6118640,Melrose Leadership Academy,4730 Fleming Ave.,Oakland,CA,94619,KG,08,No,No,Yes,Yes,508.00000,23.00000,22.1000000,231.00000,22.00000,37.78044790000001,-122.1976185
0100701,MetWest High,314 E. Tenth St.,Oakland,CA,94606,09,12,No,No,Yes,Yes,174.00000,11.00000,15.8000000,120.00000,12.00000,37.7953392,-122.2578559
0130286,Millennium High Alternative,760 Magnolia Ave.,Piedmont,CA,94611,09,12,No,No,Yes,No,60.00000,5.50000,10.9000000,10.00000,0.00000,37.8228213,-122.2337473
6090534,Mission San Jose Elementary,43545 Bryant St.,Fremont,CA,94539,KG,06,No,No,No,†,550.00000,23.00000,23.9000000,20.00000,2.00000,37.5282681,-121.9222403
0135244,Mission San Jose High,41717 Palm Ave.,Fremont,CA,94539,09,12,No,Yes,No,†,2014.00000,81.01000,24.9000000,110.00000,8.00000,37.5444113,-121.9342807
6000749,Mission Valley Elementary,41700 Denise St.,Fremont,CA,94539,KG,06,No,No,No,†,709.00000,30.00000,23.6000000,59.00000,7.00000,37.5364196,-121.946533
0195032,Mission Valley ROCP,5019 Stevenson Blvd.,Fremont,CA,94538,09,12,No,–,†,†,0.00000,–,†,–,–,37.5282594,-121.9839676
6001978,MLK / Lafayette Elementary,991 14th St.,Oakland,CA,94607,03,05,No,No,Yes,Yes,165.00000,5.00000,33.0000000,144.00000,3.00000,37.8081631,-122.2822146
6002430,Monroe Elementary,13701 Bancroft Ave.,San Leandro,CA,94578,KG,05,No,No,Yes,Yes,376.00000,16.00000,23.5000000,183.00000,59.00000,37.7152512,-122.1404925
6002083,Montclair Elementary,1757 Mountain Blvd.,Oakland,CA,94611,KG,05,No,No,No,†,634.00000,25.50000,24.9000000,122.00000,15.00000,37.830872,-122.2128694
6057079,Montera Middle,5555 Ascot Dr.,Oakland,CA,94611,06,08,No,No,Yes,No,774.00000,47.85000,16.2000000,362.00000,54.00000,37.81965599999999,-122.2017352
6001358,Mountain House Elementary,3950 Mountain House Rd.,Byron,CA,94514,KG,08,No,No,–,–,20.00000,1.00000,20.0000000,16.00000,0.00000,37.7872506,-121.5777821
0135319,Mt. Eden High,2300 Panama St.,Hayward,CA,94545,09,12,No,No,Yes,Yes,1978.00000,86.17000,23.0000000,1080.00000,214.00000,37.62497860000001,-122.0902654
6001424,Murray Elementary,8435 Davona Dr.,Dublin,CA,94568,KG,05,No,No,Yes,No,522.00000,24.50000,21.3000000,73.00000,15.00000,37.7218036,-121.9326005
6001903,New Highland Academy,8521 A St.,Oakland,CA,94621,KG,05,No,No,Yes,Yes,351.00000,13.00000,27.0000000,325.00000,17.00000,37.7517189,-122.1789509
6102917,Newark Junior High,6201 Lafayette Ave.,Newark,CA,94560,07,08,No,No,Yes,Yes,876.00000,28.87000,30.3000000,385.00000,98.00000,37.5422529,-122.0406834
0130054,Newark Memorial High,39375 Cedar Blvd.,Newark,CA,94560,09,12,No,No,No,†,1789.00000,60.79000,29.4000000,673.00000,129.00000,37.5208571,-122.0018945
6000756,Niles Elementary,37141 Second St.,Fremont,CA,94536,KG,06,No,No,No,†,605.00000,23.00000,26.3000000,61.00000,15.00000,37.5763251,-121.9850338
6000764,O. N. Hirsch Elementary,41399 Chapel Way,Fremont,CA,94538,KG,06,No,No,Yes,No,570.00000,23.50000,24.3000000,107.00000,18.00000,37.5281336,-121.9633232
0135905,Oakland High,1023 MacArthur Blvd.,Oakland,CA,94610,09,12,No,No,Yes,Yes,1568.00000,80.71000,19.4000000,1263.00000,106.00000,37.8044662,-122.2369001
0115667,Oakland International High,4521 Webster St.,Oakland,CA,94609,09,12,No,No,Yes,Yes,367.00000,24.00000,15.3000000,334.00000,19.00000,37.83367140000001,-122.261002
0135210,Oakland SOL (School of Language) Dual Language Middle,1180 70th Ave.,Oakland,CA,94621,06,08,No,Yes,Yes,No,55.00000,4.00000,13.8000000,44.00000,3.00000,37.7591225,-122.1909455
0136051,Oakland Technical High,4351 BRd.way,Oakland,CA,94611,09,12,No,No,Yes,Yes,1998.00000,95.65000,20.9000000,848.00000,122.00000,37.8323024,-122.2553866
6116222,Ocean View Elementary,1000 Jackson St.,Albany,CA,94706,KG,05,No,No,Yes,No,574.00000,23.30000,24.6000000,161.00000,20.00000,37.886828,-122.3014503
6090542,Oliveira Elementary,4180 Alder Ave.,Fremont,CA,94536,KG,06,No,No,Yes,No,858.00000,34.51000,24.9000000,132.00000,33.00000,37.5604762,-122.0170591
0136226,Opportunity Academy,313 W. Winton Ave.,Hayward,CA,94544,10,12,Yes,No,No,†,23.00000,1.00000,23.0000000,18.00000,0.00000,37.6585103,-122.0983459
6090302,Oxford Elementary,1130 Oxford St.,Berkeley,CA,94707,KG,05,No,No,Yes,Yes,290.00000,14.26000,20.3000000,96.00000,7.00000,37.8874008,-122.2683574
6001093,Palma Ceia Elementary,27679 Melbourne Ave.,Hayward,CA,94545,KG,06,No,No,Yes,Yes,557.00000,23.00000,24.2000000,344.00000,55.00000,37.62739,-122.086595
6090419,Palomares Elementary,PO Box 2146,Castro Valley,CA,94546,KG,05,No,No,No,†,145.00000,6.40000,22.7000000,20.00000,3.00000,37.7079558,-122.072069
6001101,Park Elementary,411 Larchmont St.,Hayward,CA,94540,KG,06,No,No,Yes,Yes,552.00000,23.00000,24.0000000,384.00000,39.00000,37.6536844,-122.0931775
6002091,Parker Elementary,7929 Ney Ave.,Oakland,CA,94605,KG,08,No,No,Yes,Yes,370.00000,17.36000,21.3000000,328.00000,4.00000,37.7652106,-122.1660014
6000798,Parkmont Elementary,2601 Parkside Dr.,Fremont,CA,94536,KG,06,No,No,No,†,881.00000,32.80000,26.9000000,79.00000,12.00000,37.5607173,-121.9841453
6000806,Patterson Elementary,35521 Cabrillo Dr.,Fremont,CA,94536,KG,06,No,No,Yes,No,770.00000,30.51000,25.2000000,158.00000,19.00000,37.5618206,-122.0313142
6002109,Peralta Elementary,460 63rd St.,Oakland,CA,94609,KG,05,No,No,No,†,329.00000,14.00000,23.5000000,54.00000,5.00000,37.849492,-122.2586978
6117600,Phoebe Apperson Hearst Elementary,5301 Case Ave.,Pleasanton,CA,94566,KG,05,No,No,No,†,675.00000,26.00000,26.0000000,47.00000,5.00000,37.6517907,-121.885656
6002117,Piedmont Avenue Elementary,4314 Piedmont Ave.,Oakland,CA,94611,KG,05,No,No,Yes,Yes,334.00000,14.00000,23.9000000,220.00000,16.00000,37.8286763,-122.2485942
0136515,Piedmont High,800 Magnolia Ave.,Piedmont,CA,94611,09,12,No,No,No,†,813.00000,47.21000,17.2000000,11.00000,0.00000,37.8232545,-122.232329
6066492,Piedmont Middle,740 Magnolia Ave.,Piedmont,CA,94611,06,08,No,No,No,†,665.00000,40.60000,16.4000000,12.00000,0.00000,37.8225814,-122.2345628
0125492,Piedmont Preschool,760 Magnolia Ave.,Piedmont,CA,94611,–,–,No,–,†,†,†,–,†,†,†,37.8228213,-122.2337473
6101604,Pioneer Elementary,32737 Bel Aire St.,Union City,CA,94587,KG,05,No,No,Yes,No,795.00000,33.00000,24.1000000,232.00000,72.00000,37.5720205,-122.0713924
6108971,Pleasanton Middle,5001 Case Ave.,Pleasanton,CA,94566,06,08,No,No,Yes,No,1238.00000,56.09000,22.1000000,125.00000,25.00000,37.6545518,-121.8839258
6002125,Prescott,920 Campbell St.,Oakland,CA,94607,KG,05,No,No,Yes,Yes,181.00000,8.00000,22.6000000,158.00000,4.00000,37.808724,-122.297508
6090435,Proctor Elementary,PO Box 2146,Castro Valley,CA,94546,KG,05,No,No,No,†,494.00000,18.50000,26.7000000,64.00000,22.00000,37.7079558,-122.072069
0118653,Ralph J. Bunche High,1240 18th St.,Oakland,CA,94607,09,12,No,No,Yes,Yes,100.00000,10.70000,9.3000000,86.00000,1.00000,37.8133544,-122.286943
6089338,Rancho Las Positas Elementary,401 E. Jack London Blvd.,Livermore,CA,94551,KG,05,No,No,No,†,602.00000,25.00000,24.1000000,124.00000,12.00000,37.6881736,-121.7966776
0110239,Reach Academy,9845 Bancroft Ave.,Oakland,CA,94603,KG,05,No,No,Yes,Yes,397.00000,15.00000,26.5000000,314.00000,14.00000,37.74708770000001,-122.1613646
0135533,Redwood Continuation High,18400 Clifton Way,Castro Valley,CA,94546,09,12,No,No,Yes,No,109.00000,8.40000,13.0000000,48.00000,4.00000,37.7133204,-122.0925559
6002141,Redwood Heights Elementary,4401 39th Ave.,Oakland,CA,94619,KG,05,No,No,No,†,362.00000,16.00000,22.6000000,88.00000,15.00000,37.7973006,-122.1863562
0110262,Rise Community,8521 A St.,Oakland,CA,94621,KG,05,No,No,Yes,Yes,242.00000,10.00000,24.2000000,230.00000,6.00000,37.7517189,-122.1789509
0130138,Robertson High (Continuation),4455 Seneca Park Ave.,Fremont,CA,94538,09,12,No,No,Yes,Yes,167.00000,18.00000,9.3000000,78.00000,5.00000,37.5200581,-121.9648189
6002448,Roosevelt Elementary,13701 Bancroft Ave.,San Leandro,CA,94578,KG,05,No,No,No,†,528.00000,19.00000,27.8000000,147.00000,31.00000,37.7152512,-122.1404925
6057087,Roosevelt Middle,1926 19th Ave.,Oakland,CA,94606,06,08,No,No,Yes,Yes,548.00000,33.00000,16.6000000,490.00000,23.00000,37.7899489,-122.2372044
0112805,ROOTS International Academy,1390 66th Ave.,Oakland,CA,94621,06,08,No,No,Yes,Yes,309.00000,24.10000,12.8000000,286.00000,13.00000,37.7615544,-122.1936724
6090187,Rosa Parks Environmental Science,920 Allston Way,Berkeley,CA,94710,KG,05,No,No,No,†,445.00000,21.19000,21.0000000,99.00000,6.00000,37.8654179,-122.2945041
0130047,Roy A. Johnson High,PO Box 2146,Castro Valley,CA,94546,09,12,No,No,No,†,13.00000,2.00000,6.5000000,3.00000,0.00000,37.7079558,-122.072069
0137745,Royal Sunset (Continuation),20450 Royal Ave.,Hayward,CA,94541,07,12,No,No,No,†,137.00000,8.23000,16.6000000,77.00000,9.00000,37.6696219,-122.114452
0111765,Ruby Bridges Elementary,351 Jack London Ave.,Alameda,CA,94501,KG,05,No,No,Yes,Yes,504.00000,20.00000,25.2000000,303.00000,34.00000,37.7823029,-122.2853413
0130146,Rudsdale Continuation,8251 Fontaine St.,Oakland,CA,94605,09,12,No,No,Yes,Yes,187.00000,11.84000,15.8000000,145.00000,4.00000,37.7655596,-122.1535826
6001127,Ruus Elementary,28027 Dickens Ave.,Hayward,CA,94540,KG,06,No,No,Yes,Yes,536.00000,21.00000,25.5000000,326.00000,51.00000,37.627011,-122.074003
0137588,San Leandro High,13701 Bancroft Ave.,San Leandro,CA,94577,09,12,No,No,No,†,2657.00000,116.00000,22.9000000,1300.00000,299.00000,37.7152512,-122.1404925
0137810,San Lorenzo High,50 E. Lewelling Blvd.,San Lorenzo,CA,94580,09,12,No,No,Yes,No,1412.00000,62.63000,22.5000000,863.00000,99.00000,37.688571,-122.122524
0129569,San Lorenzo Unified Preschool,20450 Royal Ave.,Hayward,CA,94541,–,–,No,–,†,†,†,–,†,†,†,37.6696219,-122.114452
0110254,Sankofa Academy,581 61st St.,Oakland,CA,94609,KG,05,No,No,Yes,Yes,187.00000,8.50000,22.0000000,162.00000,7.00000,37.8468841,-122.2645469
6001135,Schafer Park Elementary,PO Box 5000,Hayward,CA,94540,KG,06,No,No,Yes,Yes,768.00000,30.90000,24.9000000,477.00000,42.00000,37.6599999,-122.1
6001622,Searles Elementary,33629 15th St.,Union City,CA,94587,KG,05,No,No,Yes,Yes,673.00000,28.00000,24.0000000,371.00000,72.00000,37.5957988,-122.0274092
6002174,Sequoia Elementary,3730 Lincoln Ave.,Oakland,CA,94602,KG,05,No,No,No,†,436.00000,17.50000,24.9000000,138.00000,8.00000,37.8021834,-122.2109189
0137943,Skyline High,12250 Skyline Blvd.,Oakland,CA,94619,09,12,No,No,Yes,Yes,1756.00000,96.30000,18.2000000,1186.00000,116.00000,37.798392,-122.161464
6001176,Southgate Elementary,26601 Calaroga Ave.,Hayward,CA,94545,KG,06,No,No,No,†,681.00000,28.00000,24.3000000,344.00000,62.00000,37.6384493,-122.094523
0119842,Special Education-Preschool-Laurel,2652 Vergil Ct.,Castro Valley,CA,94546,–,–,No,–,†,†,†,–,†,†,†,37.6872413,-122.0703841
6090468,Stanton Elementary,PO Box 2146,Castro Valley,CA,94546,KG,05,No,No,Yes,No,467.00000,18.40000,25.4000000,113.00000,35.00000,37.7079558,-122.072069
6090559,Steven Millard Elementary,5200 Valpey Park Dr.,Fremont,CA,94538,KG,06,No,No,Yes,No,578.00000,24.00000,24.1000000,80.00000,34.00000,37.5193351,-121.9749139
0111815,Stonebrae Elementary,24411 Amador St.,Hayward,CA,94540,KG,06,No,No,No,†,746.00000,30.50000,24.5000000,314.00000,35.00000,37.6566257,-122.093452
0130179,Street Academy (Alternative),417 29th St.,Oakland,CA,94609,09,12,No,No,Yes,Yes,108.00000,6.50000,16.6000000,90.00000,4.00000,37.8175698,-122.265433
6062160,Strobridge Elementary,PO Box 5000,Hayward,CA,94540,KG,06,No,No,Yes,Yes,540.00000,20.00000,27.0000000,311.00000,37.00000,37.6599999,-122.1
6002711,Sunol Glen Elementary,11601 Main St.,Sunol,CA,94586,KG,08,No,No,Yes,No,293.00000,13.50000,21.7000000,26.00000,2.00000,37.5937079,-121.88506
6097661,Sunset Elementary,1671 Frankfurt Way,Livermore,CA,94550,KG,05,No,No,No,†,776.00000,30.60000,25.4000000,54.00000,4.00000,37.6626467,-121.7744959
6090278,Sylvia Mendez Elementary,2241 Russell St.,Berkeley,CA,94705,KG,05,No,No,Yes,Yes,381.00000,20.28000,18.8000000,124.00000,18.00000,37.8578359,-122.2623314
0138339,Tennyson High,27035 Whitman Rd.,Hayward,CA,94544,09,12,No,No,Yes,Yes,1446.00000,66.15000,21.9000000,977.00000,111.00000,37.642222,-122.067212
0100792,Think College Now,2825 International Blvd.,Oakland,CA,94601,KG,05,No,No,Yes,Yes,307.00000,13.00000,23.6000000,248.00000,28.00000,37.7793766,-122.230619
6117592,Thomas S. Hart Middle,4433 Willow Rd.,Pleasanton,CA,94588,06,08,No,No,Yes,No,1247.00000,54.20000,23.0000000,84.00000,16.00000,37.68578350000001,-121.8969049
6002216,Thornhill Elementary,5880 Thornhill Dr.,Oakland,CA,94611,KG,05,No,No,No,†,390.00000,18.00000,21.7000000,60.00000,3.00000,37.8359106,-122.2110144
6056915,Thornton Junior High,4357 Thornton Ave.,Fremont,CA,94536,07,08,No,No,No,†,1333.00000,54.93000,24.3000000,171.00000,38.00000,37.5564237,-122.0158687
6090310,Thousand Oaks Elementary,840 Colusa Ave.,Berkeley,CA,94707,KG,05,No,No,Yes,Yes,423.00000,22.66000,18.7000000,154.00000,27.00000,37.8925299,-122.2807632
6115505,Tom Kitayama Elementary,1959 Sunsprite Dr.,Union City,CA,94587,KG,05,No,No,Yes,Yes,811.00000,32.00000,25.3000000,297.00000,61.00000,37.5987925,-122.049743
6000715,Tom Maloney Elementary,38700 Logan Dr.,Fremont,CA,94536,KG,06,No,No,Yes,No,591.00000,24.00000,24.6000000,117.00000,17.00000,37.5457911,-121.9983603
6001192,Treeview Elementary,30565 Treeview St.,Hayward,CA,94544,KG,06,No,No,Yes,Yes,500.00000,19.00000,26.3000000,308.00000,35.00000,37.6243893,-122.0374365
0195016,Tri-Valley ROP,1040 Florence Rd.,Livermore,CA,94551,09,12,No,–,†,†,0.00000,–,†,–,–,37.6691535,-121.7742828
6104566,Tyrrell Elementary,27000 Tyrrell Ave.,Hayward,CA,94540,KG,06,No,No,Yes,Yes,716.00000,28.00000,25.6000000,528.00000,40.00000,37.63771819999999,-122.0753591
0112763,United for Success Academy,2101 35th Ave.,Oakland,CA,94601,06,08,No,No,Yes,Yes,359.00000,22.10000,16.2000000,331.00000,11.00000,37.7847011,-122.2165488
6118657,Urban Promise Academy,3031 E. 18th St.,Oakland,CA,94601,06,08,No,No,Yes,Yes,372.00000,19.30000,19.3000000,336.00000,21.00000,37.7819779,-122.2241289
6000830,Vallejo Mill Elementary,38569 Canyon Heights Dr.,Fremont,CA,94536,KG,06,No,No,Yes,No,542.00000,23.00000,23.6000000,132.00000,16.00000,37.5746515,-121.9606206
0138453,Valley High (Continuation),6901 York Dr.,Dublin,CA,94568,09,12,No,No,Yes,No,56.00000,8.10000,6.9000000,25.00000,3.00000,37.7096087,-121.9212219
6002349,Valley View Elementary,480 Adams Way,Pleasanton,CA,94566,KG,05,No,No,Yes,No,645.00000,26.17000,24.6000000,132.00000,19.00000,37.6605134,-121.8622198
6090484,Vannoy Elementary,PO Box 2146,Castro Valley,CA,94546,KG,05,No,No,No,†,434.00000,18.00000,24.1000000,42.00000,8.00000,37.7079558,-122.072069
0130252,Village High,4645 Bernal Ave.,Pleasanton,CA,94566,09,12,No,No,Yes,No,109.00000,12.30000,8.9000000,28.00000,1.00000,37.6557868,-121.8749709
0130393,Vineyard Alternative,1401 Almond Ave.,Livermore,CA,94550,01,12,No,No,Yes,No,133.00000,13.55000,9.8000000,31.00000,0.00000,37.6771018,-121.7408556
6089361,Vintage Hills Elementary,1125 Concord St.,Pleasanton,CA,94566,KG,05,No,No,No,†,634.00000,25.40000,25.0000000,30.00000,4.00000,37.6554658,-121.8554996
0130435,Vista Alternative,4455 Seneca Park Ave.,Fremont,CA,94538,07,12,No,No,Yes,Yes,25.00000,3.00000,8.3000000,9.00000,0.00000,37.5200581,-121.9648189
6002356,Walnut Grove Elementary,1999 Harvest Rd.,Pleasanton,CA,94566,KG,05,No,No,No,†,728.00000,27.00000,27.0000000,26.00000,1.00000,37.673212,-121.8854479
6000848,Warm Springs Elementary,47370 Warm Springs Blvd.,Fremont,CA,94539,03,06,No,No,No,†,1073.00000,37.00000,29.0000000,47.00000,5.00000,37.4825199,-121.9247778
6089619,Warwick Elementary,3375 Warwick Rd.,Fremont,CA,94555,KG,06,No,No,No,†,910.00000,34.00000,26.8000000,133.00000,17.00000,37.57693769999999,-122.0316484
6090328,Washington Elementary,2300 MLK Jr. Way,Berkeley,CA,94704,KG,05,No,No,Yes,Yes,500.00000,23.54000,21.2000000,131.00000,26.00000,37.8666472,-122.2731277
6002455,Washington Elementary,13701 Bancroft Ave.,San Leandro,CA,94578,KG,05,No,No,Yes,Yes,382.00000,17.00000,22.5000000,246.00000,32.00000,37.7152512,-122.1404925
0138693,Washington High,38442 Fremont Blvd.,Fremont,CA,94536,09,12,No,No,Yes,No,1940.00000,85.80000,22.6000000,432.00000,87.00000,37.5528194,-121.9948226
6002703,Washington Manor Middle,1170 Fargo Ave.,San Leandro,CA,94579,06,08,No,No,Yes,No,764.00000,31.79000,24.0000000,344.00000,83.00000,37.68769899999999,-122.149185
6066484,Wells Middle,6800 Penn Dr.,Dublin,CA,94568,06,08,No,No,Yes,No,1029.00000,45.99000,22.4000000,156.00000,19.00000,37.7117328,-121.9188827
0115626,West Oakland Middle,991 14th St.,Oakland,CA,94607,06,08,No,No,Yes,Yes,202.00000,13.70000,14.7000000,187.00000,7.00000,37.8081631,-122.2822146
6057095,Westlake Middle,2629 Harrison St.,Oakland,CA,94612,06,08,No,No,Yes,Yes,360.00000,21.85000,16.5000000,289.00000,18.00000,37.8145333,-122.2608691
0116301,Whiteford (June) Special Education Preschool,35725 Cedar Blvd.,Newark,CA,94560,–,–,No,–,†,†,†,–,†,†,†,37.5501693,-122.0381524
6002307,Wildwood Elementary,301 Wildwood Ave,Piedmont,CA,94611,KG,05,No,No,No,†,302.00000,12.00000,25.2000000,–,–,37.8197488,-122.2352055
6090112,Will C. Wood Middle,420 Grand St.,Alameda,CA,94501,06,08,No,No,Yes,Yes,519.00000,25.48000,20.4000000,225.00000,32.00000,37.7613266,-122.2624519
6056865,Willard Middle,2425 Stuart St.,Berkeley,CA,94705,06,08,No,No,Yes,Yes,634.00000,29.27000,21.7000000,214.00000,29.00000,37.8599191,-122.2584969
6090120,William G. Paden Elementary,444 Central Ave.,Alameda,CA,94501,KG,05,No,No,Yes,Yes,374.00000,15.00000,24.9000000,155.00000,12.00000,37.7712774,-122.2839084
6056923,William Hopkins Junior High,600 Driscoll Rd.,Fremont,CA,94539,07,08,No,No,No,†,1126.00000,46.60000,24.2000000,58.00000,14.00000,37.5469013,-121.9418724
6001341,William Mendenhall Middle,1701 El Padro Dr.,Livermore,CA,94550,06,08,No,No,No,†,975.00000,38.97000,25.0000000,95.00000,12.00000,37.6629103,-121.7932084
6002463,Wilson Elementary,13701 Bancroft Ave.,San Leandro,CA,94578,KG,05,No,No,Yes,Yes,722.00000,26.50000,27.2000000,430.00000,98.00000,37.7152512,-122.1404925
6056972,Winton Middle,PO Box 5000,Hayward,CA,94540,07,08,No,No,Yes,Yes,509.00000,22.22000,22.9000000,358.00000,46.00000,37.6599999,-122.1
0121228,Young Adult Program,1000 BRd.way Ste. 398,Oakland,CA,94607,12,12,No,No,No,†,82.00000,0.50000,164.0000000,7.00000,0.00000,37.8013874,-122.2719463
0127233,Young Adult Program,4210 Tech Dr.,Fremont,CA,94538,09,12,No,No,No,†,40.00000,3.00000,13.3000000,3.00000,0.00000,37.5079221,-121.9545989
